TANAGER-1               
1 60507U 24149AR  26161.22904179  .00002640  00000+0  58019-4 0  9996
2 60507  97.2727 255.4802 0003227 334.7944  25.3147 15.44922363101966
EAGLEEYE                
1 60508U 24149AS  26162.24415353  .00074373  00000+0  62077-3 0  9991
2 60508  97.3728 255.2579 0003614 252.4993 107.5874 15.69824197102007
FLOCK 4BE-29            
1 60509U 24149AT  26162.21776642  .00014456  00000+0  31947-3 0  9998
2 60509  97.3812 248.0013 0001539 335.4466  24.6709 15.43949059101491
TRANSPORTER-11 OBJECT AU
1 60510U 24149AU  26162.21053279  .00011949  00000+0  30092-3 0  9998
2 60510  97.3732 245.8838 0002424 323.7742  36.3340 15.40055901101396
FLOCK 4BE-2             
1 60511U 24149AV  26162.19342613  .00046577  00000+0  77076-3 0  9997
2 60511  97.3833 249.3195 0002713 279.4182  80.6764 15.52059439101575
FLOCK 4BE-13            
1 60512U 24149AW  26162.18504612  .00012250  00000+0  29191-3 0  9992
2 60512  97.3721 246.5346 0002771 292.5421  67.5533 15.41728648101442
FLOCK 4BE-27            
1 60513U 24149AX  26162.19474800  .00007558  00000+0  22967-3 0  9998
2 60513  97.3827 244.0434 0002972 346.4168  13.6995 15.34342179101224
FLOCK 4BE-9             
1 60514U 24149AY  26162.17989681  .00013731  00000+0  33911-3 0  9996
2 60514  97.3792 246.3940 0001590 339.5978  20.5204 15.40617089101390
FLOCK 4BE-6             
1 60516U 24149BA  26162.20394270  .00011329  00000+0  29147-3 0  9993
2 60516  97.3790 245.7877 0002197 331.9493  28.1634 15.39415412101355
FLOCK 4BE-14            
1 60517U 24149BB  26162.19313122  .00013792  00000+0  33849-3 0  9999
2 60517  97.3701 245.9079 0003132 324.3200  35.7837 15.40805096101404
FLOCK 4BE-1             
1 60518U 24149BC  26162.21528116  .00013748  00000+0  32004-3 0  9997
2 60518  97.3781 247.1863 0002852 321.4341  38.6702 15.42405080101459
FLOCK 4BE-28            
1 60519U 24149BD  26162.17362975  .00016323  00000+0  35132-3 0  9999
2 60519  97.3748 247.8498 0002944 315.5735  44.5277 15.44702988101516
IPERDRONE.0             
1 60520U 24149BE  26162.23700457  .00061878  00000+0  60903-3 0  9998
2 60520  97.3781 255.1588 0003138 240.7575 119.3372 15.65797667101983
TRANSPORTER-11 OBJECT BF
1 60521U 24149BF  26162.25189842  .00193920  00000+0  93388-3 0  9997
2 60521  97.3769 257.7422 0005342 241.8776 118.1953 15.82089746102141
CONNECTA IOT-2          
1 60522U 24149BG  26162.20492897  .00003580  00000+0  15105-3 0  9993
2 60522  97.3840 240.4411 0006112   0.6451 359.4793 15.23924024100980
PTD-R (TYVAK-0127)      
1 60523U 24149BH  26162.22985730  .01454368  24110-5  94703-3 0  9999
2 60523  97.3854 262.6797 0011254 267.0735  92.9264 16.17157699102485
CONNECTA IOT-4          
1 60524U 24149BJ  26162.23729881  .00015867  00000+0  37482-3 0  9997
2 60524  97.3801 246.5379 0004046 313.7825  46.3087 15.41926884101419
ORESAT0.5               
1 60525U 24149BK  26162.22429281  .00016634  00000+0  35608-3 0  9999
2 60525  97.3723 248.1341 0004031 301.7540  58.3316 15.44855455101556
DEIMOS                  
1 60526U 24149BL  26162.18841921  .00016063  00000+0  35390-3 0  9998
2 60526  97.3782 248.2412 0004057 311.1269  48.9628 15.44010139101523
CUAVA-2                 
1 60527U 24149BM  26162.22017777  .00009905  00000+0  28490-3 0  9998
2 60527  97.3725 243.7296 0005438 321.8509  38.2350 15.35979480101257
ERNST                   
1 60528U 24149BN  26162.18852614  .00011753  00000+0  30585-3 0  9993
2 60528  97.3811 245.8637 0004729 326.8623  33.2325 15.39048284101351
TORO                    
1 60530U 24149BQ  26162.15479438  .00002118  00000+0  19196-3 0  9992
2 60530  97.6788 236.9351 0001645  87.7853 272.3556 14.96401028 99052
HYPSO-2                 
1 60531U 24149BR  26162.19207008  .00001590  00000+0  13691-3 0  9996
2 60531  97.6820 238.5412 0001150  39.1180 321.0126 14.98763586 99159
LEMU NGE                
1 60532U 24149BS  26162.16114505  .00002440  00000+0  22872-3 0  9999
2 60532  97.6844 237.2423 0002528  75.3912 284.7589 14.94930624 99051
LEMUR-2-STELLA          
1 60533U 24149BT  26162.19083908  .00009280  00000+0  54897-3 0  9996
2 60533  97.6733 244.6199 0001661  99.6109 260.5309 15.11675589 99592
SATELIOT_2              
1 60534U 24149BU  26162.20855785  .00001703  00000+0  15560-3 0  9995
2 60534  97.6826 237.2734 0001860 101.6008 258.5422 14.96336355 99075
NIGHTJAR                
1 60535U 24149BV  26162.18444759  .00001761  00000+0  15018-3 0  9990
2 60535  97.6861 238.9753 0001968  82.3579 277.7868 14.98991575141978
LEMUR-2-MARHISYAM       
1 60536U 24149BW  26162.16899298  .00009479  00000+0  56897-3 0  9995
2 60536  97.6882 245.0409 0003191 128.1580 231.9938 15.11136823 99571
SATELIOT_4              
1 60537U 24149BX  26162.15376828  .00002071  00000+0  18666-3 0  9997
2 60537  97.6738 236.7514 0003445  75.1375 285.0228 14.96646043 99070
PICO-02A021             
1 60538U 24149BY  26160.44480182  .00004863  00000+0  36415-3 0  9990
2 60538  97.6731 239.3437 0005424  49.7626 310.4073 15.03169138 98571
