OBJECT_NAME,OBJECT_ID,EPOCH,MEAN_MOTION,ECCENTRICITY,INCLINATION,RA_OF_ASC_NODE,ARG_OF_PERICENTER,MEAN_ANOMALY,EPHEMERIS_TYPE,CLASSIFICATION_TYPE,NORAD_CAT_ID,ELEMENT_SET_NO,REV_AT_EPOCH,BSTAR,MEAN_MOTION_DOT,MEAN_MOTION_DDOT
TANAGER-1,2024-149AR,2026-06-10T05:29:49.210656,15.44922363,.00032272,97.2727,255.4802,334.7944,25.3147,0,U,60507,999,10196,.58018698E-4,.264E-4,0
EAGLEEYE,2024-149AS,2026-06-11T05:51:34.864992,15.69824197,.00036144,97.3728,255.2579,252.4993,107.5874,0,U,60508,999,10200,.62077071E-3,.74373E-3,0
FLOCK 4BE-29,2024-149AT,2026-06-11T05:13:35.018688,15.43949059,.00015394,97.3812,248.0013,335.4466,24.6709,0,U,60509,999,10149,.31946644E-3,.14456E-3,0
TRANSPORTER-11 OBJECT AU,2024-149AU,2026-06-11T05:03:10.033056,15.40055901,.00024242,97.3732,245.8838,323.7742,36.3340,0,U,60510,999,10139,.30091525E-3,.11949E-3,0
FLOCK 4BE-2,2024-149AV,2026-06-11T04:38:32.017632,15.52059439,.00027139,97.3833,249.3195,279.4182,80.6764,0,U,60511,999,10157,.77075532E-3,.46577E-3,0
FLOCK 4BE-13,2024-149AW,2026-06-11T04:26:27.984768,15.41728648,.00027716,97.3721,246.5346,292.5421,67.5533,0,U,60512,999,10144,.29191356E-3,.1225E-3,0
FLOCK 4BE-27,2024-149AX,2026-06-11T04:40:26.227200,15.34342179,.00029728,97.3827,244.0434,346.4168,13.6995,0,U,60513,999,10122,.22966743E-3,.7558E-4,0
FLOCK 4BE-9,2024-149AY,2026-06-11T04:19:03.084384,15.40617089,.00015903,97.3792,246.3940,339.5978,20.5204,0,U,60514,999,10139,.33911155E-3,.13731E-3,0
FLOCK 4BE-6,2024-149BA,2026-06-11T04:53:40.649280,15.39415412,.00021975,97.3790,245.7877,331.9493,28.1634,0,U,60516,999,10135,.29146922E-3,.11329E-3,0
FLOCK 4BE-14,2024-149BB,2026-06-11T04:38:06.537408,15.40805096,.00031326,97.3701,245.9079,324.3200,35.7837,0,U,60517,999,10140,.33849204E-3,.13792E-3,0
FLOCK 4BE-1,2024-149BC,2026-06-11T05:10:00.292224,15.42405080,.00028524,97.3781,247.1863,321.4341,38.6702,0,U,60518,999,10145,.32003643E-3,.13748E-3,0
FLOCK 4BE-28,2024-149BD,2026-06-11T04:10:01.610400,15.44702988,.00029445,97.3748,247.8498,315.5735,44.5277,0,U,60519,999,10151,.35132201E-3,.16323E-3,0
IPERDRONE.0,2024-149BE,2026-06-11T05:41:17.194848,15.65797667,.00031381,97.3781,255.1588,240.7575,119.3372,0,U,60520,999,10198,.60902607E-3,.61878E-3,0
TRANSPORTER-11 OBJECT BF,2024-149BF,2026-06-11T06:02:44.023488,15.82089746,.00053424,97.3769,257.7422,241.8776,118.1953,0,U,60521,999,10214,.93387742E-3,.19392E-2,0
CONNECTA IOT-2,2024-149BG,2026-06-11T04:55:05.863008,15.23924024,.00061126,97.3840,240.4411,0.6451,359.4793,0,U,60522,999,10098,.15104941E-3,.358E-4,0
PTD-R (TYVAK-0127),2024-149BH,2026-06-11T05:30:59.670720,16.17157699,.00112549,97.3854,262.6797,267.0735,92.9264,0,U,60523,999,10248,.94703211E-3,.1454368E-1,.2410977E-5
CONNECTA IOT-4,2024-149BJ,2026-06-11T05:41:42.617184,15.41926884,.0004046,97.3801,246.5379,313.7825,46.3087,0,U,60524,999,10141,.37481632E-3,.15867E-3,0
ORESAT0.5,2024-149BK,2026-06-11T05:22:58.898784,15.44855455,.00040311,97.3723,248.1341,301.7540,58.3316,0,U,60525,999,10155,.35607574E-3,.16634E-3,0
DEIMOS,2024-149BL,2026-06-11T04:31:19.419744,15.44010139,.00040575,97.3782,248.2412,311.1269,48.9628,0,U,60526,999,10152,.35390467E-3,.16063E-3,0
CUAVA-2,2024-149BM,2026-06-11T05:17:03.359328,15.35979480,.0005438,97.3725,243.7296,321.8509,38.2350,0,U,60527,999,10125,.2848993E-3,.9905E-4,0
ERNST,2024-149BN,2026-06-11T04:31:28.658496,15.39048284,.00047296,97.3811,245.8637,326.8623,33.2325,0,U,60528,999,10135,.30585341E-3,.11753E-3,0
TORO,2024-149BQ,2026-06-11T03:42:54.234432,14.96401028,.0001645,97.6788,236.9351,87.7853,272.3556,0,U,60530,999,9905,.19195714E-3,.2118E-4,0
HYPSO-2,2024-149BR,2026-06-11T04:36:34.854912,14.98763586,.00011508,97.6820,238.5412,39.1180,321.0126,0,U,60531,999,9915,.1369109E-3,.159E-4,0
LEMU NGE,2024-149BS,2026-06-11T03:52:02.932320,14.94930624,.00025281,97.6844,237.2423,75.3912,284.7589,0,U,60532,999,9905,.22872466E-3,.244E-4,0
LEMUR-2-STELLA,2024-149BT,2026-06-11T04:34:48.496512,15.11675589,.00016614,97.6733,244.6199,99.6109,260.5309,0,U,60533,999,9959,.54896755E-3,.928E-4,0
SATELIOT_2,2024-149BU,2026-06-11T05:00:19.398240,14.96336355,.00018601,97.6826,237.2734,101.6008,258.5422,0,U,60534,999,9907,.15560214E-3,.1703E-4,0
NIGHTJAR,2024-149BV,2026-06-11T04:25:36.271776,14.98991575,.00019689,97.6861,238.9753,82.3579,277.7868,0,U,60535,999,14197,.15018102E-3,.1761E-4,0
LEMUR-2-MARHISYAM,2024-149BW,2026-06-11T04:03:20.993472,15.11136823,.00031919,97.6882,245.0409,128.1580,231.9938,0,U,60536,999,9957,.56896676E-3,.9479E-4,0
SATELIOT_4,2024-149BX,2026-06-11T03:41:25.579392,14.96646043,.00034454,97.6738,236.7514,75.1375,285.0228,0,U,60537,999,9907,.1866569E-3,.2071E-4,0
PICO-02A021,2024-149BY,2026-06-09T10:40:30.877248,15.03169138,.00054248,97.6731,239.3437,49.7626,310.4073,0,U,60538,999,9857,.36415045E-3,.4863E-4,0
